[Satellite]
VERSION=1.1
NAME=COSMOS 1500
NICKNAME=COSMOS 1500
TLE1=1 14372U 83099A   15055.16034711  .00004155  00000-0  22815-3 0  9991
TLE2=2 14372  82.5146  95.9373 0018803 131.2257 284.4808 15.13718666709916
